{
  "links" : {
    "next" : "https://api.nasa.gov/neo/rest/v1/feed?start_date=2000-12-09&end_date=2000-12-09&detailed=true&api_key=t0TVs3DtDT2H8Oy2Zy8m2eVrNsAVKAexjcZXUckd",
    "prev" : "https://api.nasa.gov/neo/rest/v1/feed?start_date=2000-12-07&end_date=2000-12-07&detailed=true&api_key=t0TVs3DtDT2H8Oy2Zy8m2eVrNsAVKAexjcZXUckd",
    "self" : "https://api.nasa.gov/neo/rest/v1/feed?start_date=2000-12-08&end_date=2000-12-08&detailed=true&api_key=t0TVs3DtDT2H8Oy2Zy8m2eVrNsAVKAexjcZXUckd"
  },
  "element_count" : 3,
  "near_earth_objects" : {
    "2000-12-08" : [ {
      "links" : {
        "self" : "https://api.nasa.gov/neo/rest/v1/neo/2247156?api_key=t0TVs3DtDT2H8Oy2Zy8m2eVrNsAVKAexjcZXUckd"
      },
      "neo_reference_id" : "2247156",
      "name" : "247156 (2000 YH29)",
      "nasa_jpl_url" : "http://ssd.jpl.nasa.gov/sbdb.cgi?sstr=2247156",
      "absolute_magnitude_h" : 17.9,
      "estimated_diameter" : {
        "kilometers" : {
          "estimated_diameter_min" : 0.6991252322,
          "estimated_diameter_max" : 1.5632915441
        },
        "meters" : {
          "estimated_diameter_min" : 699.1252322458,
          "estimated_diameter_max" : 1563.2915440869
        },
        "miles" : {
          "estimated_diameter_min" : 0.4344161447,
          "estimated_diameter_max" : 0.97138403
        },
        "feet" : {
          "estimated_diameter_min" : 2293.7180269613,
          "estimated_diameter_max" : 5128.9094295021
        }
      },
      "is_potentially_hazardous_asteroid" : false,
      "close_approach_data" : [ {
        "close_approach_date" : "2000-12-08",
        "epoch_date_close_approach" : 976262400000,
        "relative_velocity" : {
          "kilometers_per_second" : "13.6691935198",
          "kilometers_per_hour" : "49209.0966712883",
          "miles_per_hour" : "30576.6189844458"
        },
        "miss_distance" : {
          "astronomical" : "0.2720654143",
          "lunar" : "105.833442688",
          "kilometers" : "40700404",
          "miles" : "25290060"
        },
        "orbiting_body" : "Earth"
      } ],
      "orbital_data" : {
        "orbit_id" : "36",
        "orbit_determination_date" : "2017-04-06 09:24:55",
        "orbit_uncertainty" : "0",
        "minimum_orbit_intersection" : ".26895",
        "jupiter_tisserand_invariant" : "3.375",
        "epoch_osculation" : "2458000.5",
        "eccentricity" : ".5286153436584488",
        "semi_major_axis" : "2.217375287702434",
        "inclination" : "21.84132952503184",
        "ascending_node_longitude" : "103.76990053686",
        "orbital_period" : "1206.02755755667",
        "perihelion_distance" : "1.04523668797386",
        "perihelion_argument" : "284.7692078718099",
        "aphelion_distance" : "3.389513887431008",
        "perihelion_time" : "2457875.080478927909",
        "mean_anomaly" : "37.43780753851576",
        "mean_motion" : ".2985006418338694",
        "equinox" : "J2000"
      }
    }, {
      "links" : {
        "self" : "https://api.nasa.gov/neo/rest/v1/neo/3076547?api_key=t0TVs3DtDT2H8Oy2Zy8m2eVrNsAVKAexjcZXUckd"
      },
      "neo_reference_id" : "3076547",
      "name" : "(2000 WJ10)",
      "nasa_jpl_url" : "http://ssd.jpl.nasa.gov/sbdb.cgi?sstr=3076547",
      "absolute_magnitude_h" : 20.3,
      "estimated_diameter" : {
        "kilometers" : {
          "estimated_diameter_min" : 0.2315021222,
          "estimated_diameter_max" : 0.5176544822
        },
        "meters" : {
          "estimated_diameter_min" : 231.5021222103,
          "estimated_diameter_max" : 517.6544821978
        },
        "miles" : {
          "estimated_diameter_min" : 0.1438487052,
          "estimated_diameter_max" : 0.3216554833
        },
        "feet" : {
          "estimated_diameter_min" : 759.5214226325,
          "estimated_diameter_max" : 1698.3415313737
        }
      },
      "is_potentially_hazardous_asteroid" : false,
      "close_approach_data" : [ {
        "close_approach_date" : "2000-12-08",
        "epoch_date_close_approach" : 976262400000,
        "relative_velocity" : {
          "kilometers_per_second" : "8.9773434529",
          "kilometers_per_hour" : "32318.436430524",
          "miles_per_hour" : "20081.4195698442"
        },
        "miss_distance" : {
          "astronomical" : "0.2229262595",
          "lunar" : "86.7183151245",
          "kilometers" : "33349294",
          "miles" : "20722290"
        },
        "orbiting_body" : "Earth"
      } ],
      "orbital_data" : {
        "orbit_id" : "24",
        "orbit_determination_date" : "2017-04-06 09:16:43",
        "orbit_uncertainty" : "0",
        "minimum_orbit_intersection" : ".190346",
        "jupiter_tisserand_invariant" : "3.592",
        "epoch_osculation" : "2458000.5",
        "eccentricity" : ".4587113496017733",
        "semi_major_axis" : "2.068406960531533",
        "inclination" : "16.07365606856018",
        "ascending_node_longitude" : "59.20643910693181",
        "orbital_period" : "1086.556746563496",
        "perihelion_distance" : "1.119605212140411",
        "perihelion_argument" : "42.0815866920553",
        "aphelion_distance" : "3.017208708922654",
        "perihelion_time" : "2458441.992016919272",
        "mean_anomaly" : "213.7240447002737",
        "mean_motion" : ".3313218579136238",
        "equinox" : "J2000"
      }
    }, {
      "links" : {
        "self" : "https://api.nasa.gov/neo/rest/v1/neo/3092474?api_key=t0TVs3DtDT2H8Oy2Zy8m2eVrNsAVKAexjcZXUckd"
      },
      "neo_reference_id" : "3092474",
      "name" : "(2001 VC2)",
      "nasa_jpl_url" : "http://ssd.jpl.nasa.gov/sbdb.cgi?sstr=3092474",
      "absolute_magnitude_h" : 21.2,
      "estimated_diameter" : {
        "kilometers" : {
          "estimated_diameter_min" : 0.1529519353,
          "estimated_diameter_max" : 0.3420109247
        },
        "meters" : {
          "estimated_diameter_min" : 152.9519353442,
          "estimated_diameter_max" : 342.0109247198
        },
        "miles" : {
          "estimated_diameter_min" : 0.095039897,
          "estimated_diameter_max" : 0.2125156703
        },
        "feet" : {
          "estimated_diameter_min" : 501.8108275547,
          "estimated_diameter_max" : 1122.0831222578
        }
      },
      "is_potentially_hazardous_asteroid" : true,
      "close_approach_data" : [ {
        "close_approach_date" : "2000-12-08",
        "epoch_date_close_approach" : 976262400000,
        "relative_velocity" : {
          "kilometers_per_second" : "11.7841216467",
          "kilometers_per_hour" : "42422.8379282276",
          "miles_per_hour" : "26359.9017115701"
        },
        "miss_distance" : {
          "astronomical" : "0.2201115596",
          "lunar" : "85.6233978271",
          "kilometers" : "32928222",
          "miles" : "20460648"
        },
        "orbiting_body" : "Earth"
      } ],
      "orbital_data" : {
        "orbit_id" : "9",
        "orbit_determination_date" : "2017-04-06 09:15:53",
        "orbit_uncertainty" : "2",
        "minimum_orbit_intersection" : ".0189953",
        "jupiter_tisserand_invariant" : "5.865",
        "epoch_osculation" : "2458000.5",
        "eccentricity" : ".1320476850988595",
        "semi_major_axis" : "1.040899179374797",
        "inclination" : "12.51092975200014",
        "ascending_node_longitude" : "67.12736517149807",
        "orbital_period" : "387.8925389442338",
        "perihelion_distance" : ".9034508523170526",
        "perihelion_argument" : "103.9059293736064",
        "aphelion_distance" : "1.178347506432541",
        "perihelion_time" : "2458165.130640838604",
        "mean_anomaly" : "207.2076032624641",
        "mean_motion" : ".92809209731089",
        "equinox" : "J2000"
      }
    } ]
  }
}